STARLINK-30494          
1 57970U 23151G   26068.36049035 -.00001272  00000+0 -35691-4 0  9993
2 57970  43.0027 192.4566 0001155 241.5536 118.5200 15.28417441137406
STARLINK-30814          
1 58165U 23166R   26068.69220594 -.00002322  00000+0 -66281-4 0  9999
2 58165  53.1605 219.3221 0000795  79.5515 280.5576 15.30205128133186
